IRIDIUM 171             
1 43929U 19002H   24037.93873655  .00000249  00000+0  81959-4 0  9991
2 43929  86.4016 353.7173 0002176  89.4831 270.6614 14.34218219265512
IRIDIUM 170             
1 43930U 19002J   24038.42214861  .00001811  00000+0  28311-3 0  9994
2 43930  86.6136 353.3559 0002468  86.9268 273.2231 14.72281822272618
IRIDIUM 167             
1 43931U 19002K   24037.93239159  .00000343  00000+0  11558-3 0  9991
2 43931  86.4006 353.5241 0002222  88.7384 271.4066 14.34217697265514
IRIDIUM 181             
1 56726U 23068S   24038.51476677  .00000332  00000+0  92200-4 0  9999
2 56726  86.8607  40.6479 0002211 106.0562 254.0883 14.43574935 38285
IRIDIUM 177             
1 56727U 23068T   24037.94286195  .00002730  00000+0  35566-3 0  9995
2 56727  86.1981  17.6524 0002590  92.2858 267.8660 14.80248137 38966
IRIDIUM 174             
1 56728U 23068U   24038.00502532  .00002767  00000+0  36037-3 0  9994
2 56728  86.1988  17.7161 0002593  91.1757 268.9761 14.80268663 38972
IRIDIUM 178             
1 56729U 23068V   24037.99986720  .00001053  00000+0  13521-3 0  9997
2 56729  86.5776  28.9584 0002591  90.3089 269.8430 14.80227593 38972
IRIDIUM 179             
1 56730U 23068W   24037.92689699  .00001018  00000+0  13061-3 0  9997
2 56730  86.6780  31.4696 0002380  94.9380 265.2113 14.80217207 38961
